{
  "type": "FeatureCollection",
  "features": [
    { "type": "Feature", "properties": { "name": "Québec (départ / retour)", "description": "Départ et arrivée de la boucle. Fondée par Champlain en 1608, la ville fortifiée est le berceau de la Nouvelle-France — le voyage suit d'ailleurs l'ancienne route de son empire vers l'Atlantique, le long du Saint-Laurent." }, "geometry": { "type": "Point", "coordinates": [-71.2080, 46.8139] } },
    { "type": "Feature", "properties": { "name": "Moncton (hôtel)", "description": "J1 — carrefour du Nouveau-Brunswick et pôle de l'Acadie moderne (Université de Moncton). Sa rivière Petitcodiac a son propre mascaret : un avant-goût des marées de Fundy, toutes proches." }, "geometry": { "type": "Point", "coordinates": [-64.7782, 46.0878] } },
    { "type": "Feature", "properties": { "name": "Musée Graham Bell — Baddeck", "description": "J2 — village au bord du lac Bras d'Or où Alexander Graham Bell établit son domaine d'été, Beinn Bhreagh. C'est sur la glace du lac que vola le Silver Dart en 1909, premier vol motorisé de l'Empire britannique." }, "geometry": { "type": "Point", "coordinates": [-60.7526, 46.0994] } },
    { "type": "Feature", "properties": { "name": "Camping Mira River", "description": "J2–J3 — parc provincial sur la rivière Mira, chantée par une célèbre chanson folk du Cap-Breton. Base tranquille pour rayonner vers Louisbourg, sur une côte colonisée tôt par les Français puis les Écossais." }, "geometry": { "type": "Point", "coordinates": [-60.1094, 45.9836] } },
    { "type": "Feature", "properties": { "name": "Forteresse de Louisbourg", "description": "J3 — place forte française de 1713, verrou de l'accès au Saint-Laurent et de la pêche à la morue. Prise par les Britanniques en 1745 puis en 1758 (siège de Wolfe) ; un quart de la ville est aujourd'hui reconstruit à l'identique." }, "geometry": { "type": "Point", "coordinates": [-59.9850, 45.8917] } },
    { "type": "Feature", "properties": { "name": "Camping Broad Cove — Ingonish", "description": "J4–J5 — camping du parc national des Hautes-Terres, côté Atlantique (empl. #99-101). Ingonish marque l'entrée est du Cabot Trail, là où le plateau appalachien plonge dans l'océan." }, "geometry": { "type": "Point", "coordinates": [-60.4030, 46.6560] } },
    { "type": "Feature", "properties": { "name": "Meat Cove", "description": "J5 — village le plus au nord de la Nouvelle-Écosse, au bout d'une route de gravier. Falaises abruptes sur le détroit de Cabot ; on y guette baleines et phoques, face à Terre-Neuve." }, "geometry": { "type": "Point", "coordinates": [-60.5530, 47.0186] } },
    { "type": "Feature", "properties": { "name": "Skyline Trail", "description": "J6 — sentier-belvédère emblématique du Cabot Trail : une passerelle en escalier descend le long d'un cap vers le golfe du Saint-Laurent. Habitat de l'orignal, coucher de soleil sur l'océan." }, "geometry": { "type": "Point", "coordinates": [-60.8480, 46.7376] } },
    { "type": "Feature", "properties": { "name": "Camping Chéticamp", "description": "J6–J7 — village acadien fondé en 1785 par des familles rescapées de la Déportation (les « Quatorze Vieux »). Français acadien au quotidien et tapis hookés renommés, au pied du versant ouest du Cabot Trail." }, "geometry": { "type": "Point", "coordinates": [-60.9490, 46.6480] } },
    { "type": "Feature", "properties": { "name": "Halifax (hôtel)", "description": "J8–J11 — capitale et grand port de l'Atlantique, fondée par les Britanniques en 1749 autour de sa citadelle. Théâtre de l'explosion de 1917 (plus forte déflagration d'avant l'ère nucléaire) et port de secours du Titanic, dont des victimes reposent ici." }, "geometry": { "type": "Point", "coordinates": [-63.5752, 44.6488] } },
    { "type": "Feature", "properties": { "name": "Lunenburg", "description": "J10 — ville fondée en 1753 par des « protestants étrangers » (Allemands, Suisses, Montbéliardais). Sa vieille ville colorée est inscrite à l'UNESCO ; c'est le port d'attache du Bluenose, le voilier de la pièce de 10 cents." }, "geometry": { "type": "Point", "coordinates": [-64.3160, 44.3768] } },
    { "type": "Feature", "properties": { "name": "Peggy's Cove", "description": "J10 — port de pêche et son phare de 1915, sur un socle de granit rose vieux de ~415 millions d'années, poli par les glaciers et semé de blocs erratiques. Les rochers noirs battus par la houle sont dangereux : on reste en hauteur." }, "geometry": { "type": "Point", "coordinates": [-63.9166, 44.4917] } },
    { "type": "Feature", "properties": { "name": "Plage de Clam Harbour", "description": "J11 — longue plage de sable blanc de la côte est (Eastern Shore), réputée pour son concours de sculptures de sable en août. Littoral découpé d'anses et d'îles granitiques, plus sauvage que la baie de Fundy." }, "geometry": { "type": "Point", "coordinates": [-62.8760, 44.7160] } },
    { "type": "Feature", "properties": { "name": "Hopewell Rocks", "description": "J12 — sur la baie de Fundy : les « pots de fleurs », piliers de grès coiffés d'épinettes, sculptés par la marée. À marée basse on marche sur le fond de l'océan, recouvert de ~12 m d'eau six heures plus tard." }, "geometry": { "type": "Point", "coordinates": [-64.5797, 45.8177] } },
    { "type": "Feature", "properties": { "name": "Camping Point Wolfe — parc Fundy", "description": "J12–J13 — camping du parc national Fundy (empl. G#33-34), près d'un ancien site de moulin et d'un pont couvert. Sentiers côtiers et forêt acadienne dominant une baie aux marées parmi les plus fortes du monde." }, "geometry": { "type": "Point", "coordinates": [-65.0130, 45.5480] } },

    { "type": "Feature", "properties": { "name": "J1 · Québec → Moncton", "description": "27 juil · 750 km. On longe la rive sud du Saint-Laurent, puis on traverse le Nouveau-Brunswick vers l'Acadie et l'Atlantique.", "type": "drive", "legId": "drive-j1" }, "geometry": { "type": "LineString", "coordinates": [ [-71.2080, 46.8139], [-69.55, 47.45], [-67.94, 47.37], [-66.66, 46.56], [-65.60, 46.10], [-64.7782, 46.0878] ] } },
    { "type": "Feature", "properties": { "name": "J2 · Moncton → Mira (via Baddeck)", "description": "28 juil · 500 km. Franchit l'isthme de Chignectou puis la chaussée de Canso, seul lien routier vers l'île du Cap-Breton ; arrêt au musée Graham Bell à Baddeck.", "type": "drive", "legId": "drive-j2" }, "geometry": { "type": "LineString", "coordinates": [ [-64.7782, 46.0878], [-63.26, 45.61], [-61.95, 45.62], [-61.00, 45.65], [-60.7526, 46.0994], [-60.1094, 45.9836] ] } },
    { "type": "Feature", "properties": { "name": "J3 · Mira → Louisbourg", "description": "29 juil · 40 km aller-retour vers la forteresse française, sur la côte atlantique de l'Île Royale.", "type": "drive", "legId": "drive-j3" }, "geometry": { "type": "LineString", "coordinates": [ [-60.1094, 45.9836], [-60.05, 45.92], [-59.9850, 45.8917] ] } },
    { "type": "Feature", "properties": { "name": "J4 · Mira → Broad Cove", "description": "30 juil · 165 km. Montée vers les Hautes-Terres par l'entrée est du Cabot Trail, à Ingonish.", "type": "drive", "legId": "drive-j4" }, "geometry": { "type": "LineString", "coordinates": [ [-60.1094, 45.9836], [-60.35, 46.14], [-60.60, 46.40], [-60.4030, 46.6560] ] } },
    { "type": "Feature", "properties": { "name": "J5 · Boucle Meat Cove", "description": "31 juil · ~150 km jusqu'à la pointe nord de l'île, où la route pavée cède au gravier avant Meat Cove.", "type": "drive", "legId": "drive-j5" }, "geometry": { "type": "LineString", "coordinates": [ [-60.4030, 46.6560], [-60.40, 46.83], [-60.44, 46.95], [-60.5530, 47.0186] ] } },
    { "type": "Feature", "properties": { "name": "J6 · Broad Cove → Chéticamp (Cabot Trail)", "description": "1 août · 110 km sur la moitié ouest du Cabot Trail, la plus spectaculaire, via le Skyline Trail. On passe du versant atlantique au versant du golfe.", "type": "trail", "legId": "drive-j6" }, "geometry": { "type": "LineString", "coordinates": [ [-60.4030, 46.6560], [-60.51, 46.75], [-60.75, 46.82], [-60.8480, 46.7376], [-60.9490, 46.6480] ] } },
    { "type": "Feature", "properties": { "name": "J8 · Chéticamp → Halifax", "description": "3 août · 500 km. Sortie du Cap-Breton et longue descente vers la capitale atlantique et la côte sud.", "type": "drive", "legId": "drive-j8" }, "geometry": { "type": "LineString", "coordinates": [ [-60.9490, 46.6480], [-61.35, 45.85], [-61.90, 45.60], [-62.70, 45.55], [-63.30, 45.00], [-63.5752, 44.6488] ] } },
    { "type": "Feature", "properties": { "name": "J10 · Halifax → Lunenburg → Peggy's Cove", "description": "5 août · boucle ~200 km sur la côte sud (routes 3 et 333), le long des ports de pêche et des caps de granit.", "type": "drive", "legId": "drive-j10" }, "geometry": { "type": "LineString", "coordinates": [ [-63.5752, 44.6488], [-64.05, 44.40], [-64.3160, 44.3768], [-63.95, 44.45], [-63.9166, 44.4917], [-63.5752, 44.6488] ] } },
    { "type": "Feature", "properties": { "name": "J12 · Halifax → baie de Fundy", "description": "7 août · 350 km. Traversée de l'isthme vers le Nouveau-Brunswick et la baie de Fundy, via Hopewell Rocks.", "type": "drive", "legId": "drive-j12" }, "geometry": { "type": "LineString", "coordinates": [ [-63.5752, 44.6488], [-64.20, 45.10], [-64.36, 45.74], [-64.5797, 45.8177], [-64.85, 45.65], [-65.0130, 45.5480] ] } },
    { "type": "Feature", "properties": { "name": "J14 · Baie de Fundy → maison", "description": "9 août · 750 km, le grand retour vers Québec par le Nouveau-Brunswick et le Saint-Laurent.", "type": "drive", "legId": "drive-j14" }, "geometry": { "type": "LineString", "coordinates": [ [-65.0130, 45.5480], [-65.80, 45.95], [-66.66, 46.20], [-67.94, 47.05], [-69.55, 47.45], [-71.2080, 46.8139] ] } }
  ]
}
